FENGYUN 1C DEB          
1 36173U 99025DSW 17346.53249388  .00000088  00000-0  51760-4 0  9997
2 36173  98.2604 102.0666 0156402 119.1946 242.4980 14.21192503520397
